{
  "links" : {
    "next" : "https://api.nasa.gov/neo/rest/v1/feed?start_date=1996-12-23&end_date=1996-12-23&detailed=true&api_key=t0TVs3DtDT2H8Oy2Zy8m2eVrNsAVKAexjcZXUckd",
    "prev" : "https://api.nasa.gov/neo/rest/v1/feed?start_date=1996-12-21&end_date=1996-12-21&detailed=true&api_key=t0TVs3DtDT2H8Oy2Zy8m2eVrNsAVKAexjcZXUckd",
    "self" : "https://api.nasa.gov/neo/rest/v1/feed?start_date=1996-12-22&end_date=1996-12-22&detailed=true&api_key=t0TVs3DtDT2H8Oy2Zy8m2eVrNsAVKAexjcZXUckd"
  },
  "element_count" : 5,
  "near_earth_objects" : {
    "1996-12-22" : [ {
      "links" : {
        "self" : "https://api.nasa.gov/neo/rest/v1/neo/3745113?api_key=t0TVs3DtDT2H8Oy2Zy8m2eVrNsAVKAexjcZXUckd"
      },
      "neo_reference_id" : "3745113",
      "name" : "(2016 EL27)",
      "nasa_jpl_url" : "http://ssd.jpl.nasa.gov/sbdb.cgi?sstr=3745113",
      "absolute_magnitude_h" : 26.1,
      "estimated_diameter" : {
        "kilometers" : {
          "estimated_diameter_min" : 0.0160160338,
          "estimated_diameter_max" : 0.0358129403
        },
        "meters" : {
          "estimated_diameter_min" : 16.0160337979,
          "estimated_diameter_max" : 35.8129403019
        },
        "miles" : {
          "estimated_diameter_min" : 0.0099518989,
          "estimated_diameter_max" : 0.0222531225
        },
        "feet" : {
          "estimated_diameter_min" : 52.5460443254,
          "estimated_diameter_max" : 117.4965270602
        }
      },
      "is_potentially_hazardous_asteroid" : false,
      "close_approach_data" : [ {
        "close_approach_date" : "1996-12-22",
        "epoch_date_close_approach" : 851241600000,
        "relative_velocity" : {
          "kilometers_per_second" : "16.3514809977",
          "kilometers_per_hour" : "58865.3315917398",
          "miles_per_hour" : "36576.6278437674"
        },
        "miss_distance" : {
          "astronomical" : "0.4109745829",
          "lunar" : "159.8691101074",
          "kilometers" : "61480924",
          "miles" : "38202476"
        },
        "orbiting_body" : "Earth"
      } ],
      "orbital_data" : {
        "orbit_id" : "8",
        "orbit_determination_date" : "2017-04-06 08:27:48",
        "orbit_uncertainty" : "6",
        "minimum_orbit_intersection" : ".029105",
        "jupiter_tisserand_invariant" : "6.697",
        "epoch_osculation" : "2458000.5",
        "eccentricity" : ".2297953176533559",
        "semi_major_axis" : ".8779817977579761",
        "inclination" : "15.57264136140617",
        "ascending_node_longitude" : "166.6009517990764",
        "orbital_period" : "300.4876970300288",
        "perihelion_distance" : ".6762256916483175",
        "perihelion_argument" : "145.581248333875",
        "aphelion_distance" : "1.079737903867635",
        "perihelion_time" : "2457861.597286773575",
        "mean_anomaly" : "166.4127258977795",
        "mean_motion" : "1.198052378044696",
        "equinox" : "J2000"
      }
    }, {
      "links" : {
        "self" : "https://api.nasa.gov/neo/rest/v1/neo/3752441?api_key=t0TVs3DtDT2H8Oy2Zy8m2eVrNsAVKAexjcZXUckd"
      },
      "neo_reference_id" : "3752441",
      "name" : "(2016 HL3)",
      "nasa_jpl_url" : "http://ssd.jpl.nasa.gov/sbdb.cgi?sstr=3752441",
      "absolute_magnitude_h" : 24.7,
      "estimated_diameter" : {
        "kilometers" : {
          "estimated_diameter_min" : 0.0305179233,
          "estimated_diameter_max" : 0.0682401509
        },
        "meters" : {
          "estimated_diameter_min" : 30.5179232594,
          "estimated_diameter_max" : 68.2401509401
        },
        "miles" : {
          "estimated_diameter_min" : 0.0189629525,
          "estimated_diameter_max" : 0.0424024508
        },
        "feet" : {
          "estimated_diameter_min" : 100.1244233463,
          "estimated_diameter_max" : 223.8850168104
        }
      },
      "is_potentially_hazardous_asteroid" : false,
      "close_approach_data" : [ {
        "close_approach_date" : "1996-12-22",
        "epoch_date_close_approach" : 851241600000,
        "relative_velocity" : {
          "kilometers_per_second" : "5.6766019449",
          "kilometers_per_hour" : "20435.7670018046",
          "miles_per_hour" : "12697.9908906491"
        },
        "miss_distance" : {
          "astronomical" : "0.1721206907",
          "lunar" : "66.9549484253",
          "kilometers" : "25748890",
          "miles" : "15999618"
        },
        "orbiting_body" : "Earth"
      } ],
      "orbital_data" : {
        "orbit_id" : "12",
        "orbit_determination_date" : "2017-06-19 06:17:48",
        "orbit_uncertainty" : "2",
        "minimum_orbit_intersection" : ".0382611",
        "jupiter_tisserand_invariant" : "6.222",
        "epoch_osculation" : "2458000.5",
        "eccentricity" : ".1644539434706337",
        "semi_major_axis" : ".968587523459933",
        "inclination" : "3.452676186344187",
        "ascending_node_longitude" : "100.0634816782151",
        "orbital_period" : "348.1823343669631",
        "perihelion_distance" : ".8092994856304921",
        "perihelion_argument" : "335.8989664862722",
        "aphelion_distance" : "1.127875561289374",
        "perihelion_time" : "2458081.456350852196",
        "mean_anomaly" : "276.2959075457455",
        "mean_motion" : "1.033941025912538",
        "equinox" : "J2000"
      }
    } ]
  }
}